TYVAK-0130              
1 48606U 21041BF  26068.48452211  .00008857  00000+0  35198-3 0  9997
2 48606  52.9967 128.6030 0008953 215.1647 144.8760 15.26049141265157
STARLINK-31297          
1 59158U 24044G   26068.81809308 -.00001255  00000+0 -36130-4 0  9992
2 59158  42.9996 106.4352 0000842 114.0139 246.0801 15.27538531113616
